IRIDIUM 39              
1 25042U 97069D   25267.82901890  .00001155  00000+0  29671-3 0  9992
2 25042  86.3981 168.4552 0017167 341.1423  18.9143 14.49341953463395
IRIDIUM 38              
1 25043U 97069E   25267.87381582  .00000880  00000+0  28343-3 0  9997
2 25043  86.4029 191.2435 0003811 105.9255 254.2363 14.38202903460287
IRIDIUM 42              
1 25077U 97077A   25267.86326157  .00000806  00000+0  26867-3 0  9996
2 25077  86.4026 197.5326 0002627 100.6321 259.5172 14.36431383455508
IRIDIUM 44              
1 25078U 97077B   25267.82651977  .00000839  00000+0  25872-3 0  9995
2 25078  86.4035 179.2344 0003998  73.7919 286.3720 14.40326780458049
IRIDIUM 45              
1 25104U 97082A   25267.79394040  .00028350  00000+0  92622-3 0  9997
2 25104  86.3629 359.4022 0106703 318.0072  41.3027 15.26161059467214
IRIDIUM 24              
1 25105U 97082B   25267.87920259  .00001084  00000+0  32296-3 0  9990
2 25105  86.3923  37.9853 0013411 106.2058 254.0619 14.42198312457584
IRIDIUM 51              
1 25262U 98018A   25267.84177755  .00089371  00000+0  15538-2 0  9990
2 25262  86.3851   6.2317 0073214 224.3309 135.2073 15.47469839462390
IRIDIUM 57              
1 25273U 98019B   25267.96202046  .00000573  00000+0  19077-3 0  9998
2 25273  86.3908 103.4468 0002206  89.5140 270.6310 14.35955544439109
